CTC1_L_00502001-01
1 40346U 25613NT  26070.40837963  .00000000  00000+0  00000-0 0  9998
2 40346 101.3000   0.0000 0000000   0.0000   0.0000 12.41559304    19
CTC1_L_00502001-02
1 40347U 26130ZB  26070.40837963  .00000000  00000+0  00000-0 0  9994
2 40347 101.3000   0.0000 0000000   0.0000  45.0000 12.41559304    19
CTC1_L_00502001-03
1 40348U 24835IW  26070.40837963  .00000000  00000+0  00000-0 0  9995
2 40348 101.3000   0.0000 0000000   0.0000  90.0000 12.41559304    10
CTC1_L_00502001-04
1 40349U 22440AZ  26070.40837963  .00000000  00000+0  00000-0 0  9996
2 40349 101.3000   0.0000 0000000   0.0000 135.0000 12.41559304    11
CTC1_L_00502001-05
1 40350U 24728SA  26070.40837963  .00000000  00000+0  00000-0 0  9999
2 40350 101.3000   0.0000 0000000   0.0000 180.0000 12.41559304    13
CTC1_L_00502001-06
1 40351U 22090WY  26070.40837963  .00000000  00000+0  00000-0 0  9990
2 40351 101.3000   0.0000 0000000   0.0000 225.0000 12.41559304    14
CTC1_L_00502001-07
1 40352U 23892WK  26070.40837963  .00000000  00000+0  00000-0 0  9992
2 40352 101.3000   0.0000 0000000   0.0000 270.0000 12.41559304    15
CTC1_L_00502001-08
1 40353U 23758WM  26070.40837963  .00000000  00000+0  00000-0 0  9994
2 40353 101.3000   0.0000 0000000   0.0000 315.0000 12.41559304    16
CTC1_L_00502002-01
1 40354U 22858JD  26070.40837963  .00000000  00000+0  00000-0 0  9995
2 40354 101.3000  12.0000 0000000   0.0000   6.0000 12.41559304    17
CTC1_L_00502002-02
1 40355U 24695VQ  26070.40837963  .00000000  00000+0  00000-0 0  9997
2 40355 101.3000  12.0000 0000000   0.0000  51.0000 12.41559304    18
CTC1_L_00502002-03
1 40356U 25960XJ  26070.40837963  .00000000  00000+0  00000-0 0  9994
2 40356 101.3000  12.0000 0000000   0.0000  96.0000 12.41559304    18
CTC1_L_00502002-04
1 40357U 26035CK  26070.40837963  .00000000  00000+0  00000-0 0  9999
2 40357 101.3000  12.0000 0000000   0.0000 141.0000 12.41559304    10
CTC1_L_00502002-05
1 40358U 24773OK  26070.40837963  .00000000  00000+0  00000-0 0  9997
2 40358 101.3000  12.0000 0000000   0.0000 186.0000 12.41559304    10
CTC1_L_00502002-06
1 40359U 25299LN  26070.40837963  .00000000  00000+0  00000-0 0  9992
2 40359 101.3000  12.0000 0000000   0.0000 231.0000 12.41559304    12
CTC1_L_00502002-07
1 40360U 23894VR  26070.40837963  .00000000  00000+0  00000-0 0  9993
2 40360 101.3000  12.0000 0000000   0.0000 276.0000 12.41559304    13
CTC1_L_00502002-08
1 40361U 23948ZF  26070.40837963  .00000000  00000+0  00000-0 0  9994
2 40361 101.3000  12.0000 0000000   0.0000 321.0000 12.41559304    15
CTC1_L_00502003-01
1 40362U 23537JY  26070.40837963  .00000000  00000+0  00000-0 0  9999
2 40362 101.3000  24.0000 0000000   0.0000  12.0000 12.41559304    16
CTC1_L_00502003-02
1 40363U 24190KP  26070.40837963  .00000000  00000+0  00000-0 0  9996
2 40363 101.3000  24.0000 0000000   0.0000  57.0000 12.41559304    16
CTC1_L_00502003-03
1 40364U 23837IA  26070.40837963  .00000000  00000+0  00000-0 0  9994
2 40364 101.3000  24.0000 0000000   0.0000 102.0000 12.41559304    18
CTC1_L_00502003-04
1 40365U 25646QP  26070.40837963  .00000000  00000+0  00000-0 0  9995
2 40365 101.3000  24.0000 0000000   0.0000 147.0000 12.41559304    18
CTC1_L_00502003-05
1 40366U 24675YZ  26070.40837963  .00000000  00000+0  00000-0 0  9997
2 40366 101.3000  24.0000 0000000   0.0000 192.0000 12.41559304    19
CTC1_L_00502003-06
1 40367U 23819HJ  26070.40837963  .00000000  00000+0  00000-0 0  9997
2 40367 101.3000  24.0000 0000000   0.0000 237.0000 12.41559304    10
CTC1_L_00502003-07
1 40368U 26642RV  26070.40837963  .00000000  00000+0  00000-0 0  9995
2 40368 101.3000  24.0000 0000000   0.0000 282.0000 12.41559304    11
CTC1_L_00502003-08
1 40369U 26564LZ  26070.40837963  .00000000  00000+0  00000-0 0  9999
2 40369 101.3000  24.0000 0000000   0.0000 327.0000 12.41559304    12
CTC1_L_00502004-01
1 40370U 23865WM  26070.40837963  .00000000  00000+0  00000-0 0  9992
2 40370 101.3000  36.0000 0000000   0.0000  18.0000 12.41559304    14
CTC1_L_00502004-02
1 40371U 26763WG  26070.40837963  .00000000  00000+0  00000-0 0  9993
2 40371 101.3000  36.0000 0000000   0.0000  63.0000 12.41559304    15
CTC1_L_00502004-03
1 40372U 26455FP  26070.40837963  .00000000  00000+0  00000-0 0  9992
2 40372 101.3000  36.0000 0000000   0.0000 108.0000 12.41559304    16
CTC1_L_00502004-04
1 40373U 24061NT  26070.40837963  .00000000  00000+0  00000-0 0  9994
2 40373 101.3000  36.0000 0000000   0.0000 153.0000 12.41559304    17
CTC1_L_00502004-05
1 40374U 22396OX  26070.40837963  .00000000  00000+0  00000-0 0  9994
2 40374 101.3000  36.0000 0000000   0.0000 198.0000 12.41559304    17
CTC1_L_00502004-06
1 40375U 24336BT  26070.40837963  .00000000  00000+0  00000-0 0  9991
2 40375 101.3000  36.0000 0000000   0.0000 243.0000 12.41559304    19
CTC1_L_00502004-07
1 40376U 25113ET  26070.40837963  .00000000  00000+0  00000-0 0  9996
2 40376 101.3000  36.0000 0000000   0.0000 288.0000 12.41559304    19
CTC1_L_00502004-08
1 40377U 26080BQ  26070.40837963  .00000000  00000+0  00000-0 0  9991
2 40377 101.3000  36.0000 0000000   0.0000 333.0000 12.41559304    11
CTC1_L_00502005-01
1 40378U 25722EV  26070.40837963  .00000000  00000+0  00000-0 0  9994
2 40378 101.3000  48.0000 0000000   0.0000  24.0000 12.41559304    12
CTC1_L_00502005-02
1 40379U 24081UE  26070.40837963  .00000000  00000+0  00000-0 0  9992
2 40379 101.3000  48.0000 0000000   0.0000  69.0000 12.41559304    12
CTC1_L_00502005-03
1 40380U 22756HW  26070.40837963  .00000000  00000+0  00000-0 0  9991
2 40380 101.3000  48.0000 0000000   0.0000 114.0000 12.41559304    15
CTC1_L_00502005-04
1 40381U 25904SG  26070.40837963  .00000000  00000+0  00000-0 0  9990
2 40381 101.3000  48.0000 0000000   0.0000 159.0000 12.41559304    15
CTC1_L_00502005-05
1 40382U 23431FC  26070.40837963  .00000000  00000+0  00000-0 0  9994
2 40382 101.3000  48.0000 0000000   0.0000 204.0000 12.41559304    17
CTC1_L_00502005-06
1 40383U 26984AQ  26070.40837963  .00000000  00000+0  00000-0 0  9991
2 40383 101.3000  48.0000 0000000   0.0000 249.0000 12.41559304    17
CTC1_L_00502005-07
1 40384U 22481KI  26070.40837963  .00000000  00000+0  00000-0 0  9990
2 40384 101.3000  48.0000 0000000   0.0000 294.0000 12.41559304    18
CTC1_L_00502005-08
1 40385U 24926FL  26070.40837963  .00000000  00000+0  00000-0 0  9997
2 40385 101.3000  48.0000 0000000   0.0000 339.0000 12.41559304    19
CTC1_L_00502006-01
1 40386U 26756AU  26070.40837963  .00000000  00000+0  00000-0 0  9991
2 40386 101.3000  60.0000 0000000   0.0000  30.0000 12.41559304    12
CTC1_L_00502006-02
1 40387U 25652ZY  26070.40837963  .00000000  00000+0  00000-0 0  9996
2 40387 101.3000  60.0000 0000000   0.0000  75.0000 12.41559304    12
CTC1_L_00502006-03
1 40388U 23618JX  26070.40837963  .00000000  00000+0  00000-0 0  9997
2 40388 101.3000  60.0000 0000000   0.0000 120.0000 12.41559304    14
CTC1_L_00502006-04
1 40389U 26195FW  26070.40837963  .00000000  00000+0  00000-0 0  9991
2 40389 101.3000  60.0000 0000000   0.0000 165.0000 12.41559304    14
CTC1_L_00502006-05
1 40390U 25480OJ  26070.40837963  .00000000  00000+0  00000-0 0  9999
2 40390 101.3000  60.0000 0000000   0.0000 210.0000 12.41559304    17
CTC1_L_00502006-06
1 40391U 23483FT  26070.40837963  .00000000  00000+0  00000-0 0  9991
2 40391 101.3000  60.0000 0000000   0.0000 255.0000 12.41559304    17
CTC1_L_00502006-07
1 40392U 26921HX  26070.40837963  .00000000  00000+0  00000-0 0  9992
2 40392 101.3000  60.0000 0000000   0.0000 300.0000 12.41559304    19
CTC1_L_00502006-08
1 40393U 22412YZ  26070.40837963  .00000000  00000+0  00000-0 0  9994
2 40393 101.3000  60.0000 0000000   0.0000 345.0000 12.41559304    19
CTC1_L_00502007-01
1 40394U 22750BR  26070.40837963  .00000000  00000+0  00000-0 0  9990
2 40394 101.3000  72.0000 0000000   0.0000  36.0000 12.41559304    10
CTC1_L_00502007-02
1 40395U 24963MH  26070.40837963  .00000000  00000+0  00000-0 0  9999
2 40395 101.3000  72.0000 0000000   0.0000  81.0000 12.41559304    11
CTC1_L_00502007-03
1 40396U 23679XY  26070.40837963  .00000000  00000+0  00000-0 0  9993
2 40396 101.3000  72.0000 0000000   0.0000 126.0000 12.41559304    12
CTC1_L_00502007-04
1 40397U 26192YE  26070.40837963  .00000000  00000+0  00000-0 0  9997
2 40397 101.3000  72.0000 0000000   0.0000 171.0000 12.41559304    13
CTC1_L_00502007-05
1 40398U 24025RG  26070.40837963  .00000000  00000+0  00000-0 0  9991
2 40398 101.3000  72.0000 0000000   0.0000 216.0000 12.41559304    14
CTC1_L_00502007-06
1 40399U 24642MF  26070.40837963  .00000000  00000+0  00000-0 0  9997
2 40399 101.3000  72.0000 0000000   0.0000 261.0000 12.41559304    15
CTC1_L_00502007-07
1 40400U 26353ZA  26070.40837963  .00000000  00000+0  00000-0 0  9991
2 40400 101.3000  72.0000 0000000   0.0000 306.0000 12.41559304    18
CTC1_L_00502007-08
1 40401U 24680GZ  26070.40837963  .00000000  00000+0  00000-0 0  9993
2 40401 101.3000  72.0000 0000000   0.0000 351.0000 12.41559304    19
CTC1_L_00502008-01
1 40402U 25792AI  26070.40837963  .00000000  00000+0  00000-0 0  9999
2 40402 101.3000  84.0000 0000000   0.0000  42.0000 12.41559304    10
CTC1_L_00502008-02
1 40403U 22547GI  26070.40837963  .00000000  00000+0  00000-0 0  9995
2 40403 101.3000  84.0000 0000000   0.0000  87.0000 12.41559304    10
CTC1_L_00502008-03
1 40404U 23495TJ  26070.40837963  .00000000  00000+0  00000-0 0  9999
2 40404 101.3000  84.0000 0000000   0.0000 132.0000 12.41559304    12
CTC1_L_00502008-04
1 40405U 24308RS  26070.40837963  .00000000  00000+0  00000-0 0  9994
2 40405 101.3000  84.0000 0000000   0.0000 177.0000 12.41559304    12
CTC1_L_00502008-05
1 40406U 26533YW  26070.40837963  .00000000  00000+0  00000-0 0  9997
2 40406 101.3000  84.0000 0000000   0.0000 222.0000 12.41559304    14
CTC1_L_00502008-06
1 40407U 23740HH  26070.40837963  .00000000  00000+0  00000-0 0  9995
2 40407 101.3000  84.0000 0000000   0.0000 267.0000 12.41559304    14
